[{"OBJECT_NAME":"STARLINK-6219","OBJECT_ID":"2023-083S","EPOCH":"2026-03-09T08:40:43.379616","MEAN_MOTION":15.02536913,"ECCENTRICITY":0.00011981,"INCLINATION":43.0042,"RA_OF_ASC_NODE":83.3325,"ARG_OF_PERICENTER":266.4693,"MEAN_ANOMALY":93.6012,"EPHEMERIS_TYPE":0,"CLASSIFICATION_TYPE":"U","NORAD_CAT_ID":56892,"ELEMENT_SET_NO":999,"REV_AT_EPOCH":15162,"BSTAR":-3.7534365e-5,"MEAN_MOTION_DOT":-7.11e-6,"MEAN_MOTION_DDOT":0},{"OBJECT_NAME":"NOAA 16 DEB","OBJECT_ID":"2000-055BZ","EPOCH":"2026-03-09T09:57:46.840608","MEAN_MOTION":15.04968987,"ECCENTRICITY":0.00133628,"INCLINATION":98.8453,"RA_OF_ASC_NODE":286.076,"ARG_OF_PERICENTER":194.204,"MEAN_ANOMALY":165.8809,"EPHEMERIS_TYPE":0,"CLASSIFICATION_TYPE":"U","NORAD_CAT_ID":41142,"ELEMENT_SET_NO":999,"REV_AT_EPOCH":53866,"BSTAR":0.0051237154,"MEAN_MOTION_DOT":0.00073426,"MEAN_MOTION_DDOT":0}]
